SL-16 R/B               
1 25400U 98043G   26050.48909833  .00000057  00000+0  42790-4 0  9999
2 25400  98.8224   3.7271 0010904  69.2461 290.9886 14.26045202436391
SL-16 R/B               
1 25407U 98045B   26050.56174572  .00000164  00000+0  10682-3 0  9994
2 25407  71.0094 219.6948 0005816  39.6862 320.4686 14.16190566424530
ISS (ZARYA)             
1 25544U 98067A   26050.57060042  .00006828  00000+0  13586-3 0  9996
2 25544  51.6323 161.9142 0008604 112.9152 247.2745 15.48140240553525
CZ-4B R/B               
1 25732U 99025C   26050.62519025  .00000051  00000+0  45506-4 0  9996
2 25732  98.6665  95.3315 0037728  38.3311 125.6899 14.18261611385606
OKEAN-O                 
1 25860U 99039A   26050.13118044  .00000614  00000+0  87404-4 0  9993
2 25860  97.9484 110.2076 0001724  79.1594 280.9812 14.80303557431644
SL-16 R/B               
1 25861U 99039B   26050.12856665  .00000505  00000+0  70879-4 0  9998
2 25861  98.0008 109.2490 0013865 321.8331  38.1899 14.81703818434110
DELTA 2 R/B             
1 25876U 99041E   26050.31864655  .00001611  00000+0  29675-3 0  9992
2 25876  51.7662  14.6458 0502213 294.1797  60.7420 14.11768118360430
HELIOS 1B               
1 25977U 99064A   26050.28439133  .00001749  00000+0  19886-3 0  9999
2 25977  98.1717 311.9853 0002337 100.1374 260.0105 14.87617426682529
TERRA                   
1 25994U 99068A   26050.58490436  .00000409  00000+0  92479-4 0  9990
2 25994  97.9633 104.7077 0001405 205.0180 314.5268 14.60993973392431
SL-16 R/B               
1 26070U 00006B   26050.57243338 -.00000021  00000+0  13692-4 0  9997
2 26070  71.0023 135.9326 0017909 215.4428 144.5507 14.15818315345994
TITAN 4B R/B            
1 26474U 00047B   26050.54071663  .00002822  00000+0  18175-3 0  9997
2 26474  67.9878  91.5394 0037439  57.3751 303.1002 15.09392480390175
ENVISAT                 
1 27386U 02009A   26050.47396064  .00000109  00000+0  49308-4 0  9996
2 27386  98.3699   4.5087 0001360  87.2351  23.7689 14.39029637256554
