CCSDS_OMM_VERS = 2.0
CREATION_DATE  = 
ORIGINATOR     = 

OBJECT_NAME    = SL-16 R/B
OBJECT_ID      = 1998-043G
CENTER_NAME    = EARTH
REF_FRAME      = TEME
TIME_SYSTEM    = UTC
MEAN_ELEMENT_THEORY = SGP/SGP4

EPOCH          = 2026-02-19T11:44:18.095712
MEAN_MOTION    = 14.26045202
ECCENTRICITY   = .00109043
INCLINATION    = 98.8224
RA_OF_ASC_NODE = 3.7271
ARG_OF_PERICENTER = 69.2461
MEAN_ANOMALY   = 290.9886

EPHEMERIS_TYPE = 0
CLASSIFICATION_TYPE = U
NORAD_CAT_ID   = 25400
ELEMENT_SET_NO = 999
REV_AT_EPOCH   = 43639
BSTAR          = .42790195E-4
MEAN_MOTION_DOT = .57E-6
MEAN_MOTION_DDOT = 0

CCSDS_OMM_VERS = 2.0
CREATION_DATE  = 
ORIGINATOR     = 

OBJECT_NAME    = SL-16 R/B
OBJECT_ID      = 1998-045B
CENTER_NAME    = EARTH
REF_FRAME      = TEME
TIME_SYSTEM    = UTC
MEAN_ELEMENT_THEORY = SGP/SGP4

EPOCH          = 2026-02-19T13:28:54.830208
MEAN_MOTION    = 14.16190566
ECCENTRICITY   = .00058163
INCLINATION    = 71.0094
RA_OF_ASC_NODE = 219.6948
ARG_OF_PERICENTER = 39.6862
MEAN_ANOMALY   = 320.4686

EPHEMERIS_TYPE = 0
CLASSIFICATION_TYPE = U
NORAD_CAT_ID   = 25407
ELEMENT_SET_NO = 999
REV_AT_EPOCH   = 42453
BSTAR          = .10682064E-3
MEAN_MOTION_DOT = .164E-5
MEAN_MOTION_DDOT = 0

CCSDS_OMM_VERS = 2.0
CREATION_DATE  = 
ORIGINATOR     = 

OBJECT_NAME    = ISS (ZARYA)
OBJECT_ID      = 1998-067A
CENTER_NAME    = EARTH
REF_FRAME      = TEME
TIME_SYSTEM    = UTC
MEAN_ELEMENT_THEORY = SGP/SGP4

EPOCH          = 2026-02-19T13:41:39.876288
MEAN_MOTION    = 15.48140240
ECCENTRICITY   = .00086043
INCLINATION    = 51.6323
RA_OF_ASC_NODE = 161.9142
ARG_OF_PERICENTER = 112.9152
MEAN_ANOMALY   = 247.2745

EPHEMERIS_TYPE = 0
CLASSIFICATION_TYPE = U
NORAD_CAT_ID   = 25544
ELEMENT_SET_NO = 999
REV_AT_EPOCH   = 55352
BSTAR          = .13586232E-3
MEAN_MOTION_DOT = .6828E-4
MEAN_MOTION_DDOT = 0

CCSDS_OMM_VERS = 2.0
CREATION_DATE  = 
ORIGINATOR     = 

OBJECT_NAME    = CZ-4B R/B
OBJECT_ID      = 1999-025C
CENTER_NAME    = EARTH
REF_FRAME      = TEME
TIME_SYSTEM    = UTC
MEAN_ELEMENT_THEORY = SGP/SGP4

EPOCH          = 2026-02-19T15:00:16.437600
MEAN_MOTION    = 14.18261611
ECCENTRICITY   = .00377282
INCLINATION    = 98.6665
RA_OF_ASC_NODE = 95.3315
ARG_OF_PERICENTER = 38.3311
MEAN_ANOMALY   = 125.6899

EPHEMERIS_TYPE = 0
CLASSIFICATION_TYPE = U
NORAD_CAT_ID   = 25732
ELEMENT_SET_NO = 999
REV_AT_EPOCH   = 38560
BSTAR          = .45505846E-4
MEAN_MOTION_DOT = .51E-6
MEAN_MOTION_DDOT = 0

CCSDS_OMM_VERS = 2.0
CREATION_DATE  = 
ORIGINATOR     = 

OBJECT_NAME    = OKEAN-O
OBJECT_ID      = 1999-039A
CENTER_NAME    = EARTH
REF_FRAME      = TEME
TIME_SYSTEM    = UTC
MEAN_ELEMENT_THEORY = SGP/SGP4

EPOCH          = 2026-02-19T03:08:53.990016
MEAN_MOTION    = 14.80303557
ECCENTRICITY   = .00017245
INCLINATION    = 97.9484
RA_OF_ASC_NODE = 110.2076
ARG_OF_PERICENTER = 79.1594
MEAN_ANOMALY   = 280.9812

EPHEMERIS_TYPE = 0
CLASSIFICATION_TYPE = U
NORAD_CAT_ID   = 25860
ELEMENT_SET_NO = 999
REV_AT_EPOCH   = 43164
BSTAR          = .8740411E-4
MEAN_MOTION_DOT = .614E-5
MEAN_MOTION_DDOT = 0

CCSDS_OMM_VERS = 2.0
CREATION_DATE  = 
ORIGINATOR     = 

OBJECT_NAME    = SL-16 R/B
OBJECT_ID      = 1999-039B
CENTER_NAME    = EARTH
REF_FRAME      = TEME
TIME_SYSTEM    = UTC
MEAN_ELEMENT_THEORY = SGP/SGP4

EPOCH          = 2026-02-19T03:05:08.158560
MEAN_MOTION    = 14.81703818
ECCENTRICITY   = .00138654
INCLINATION    = 98.0008
RA_OF_ASC_NODE = 109.2490
ARG_OF_PERICENTER = 321.8331
MEAN_ANOMALY   = 38.1899

EPHEMERIS_TYPE = 0
CLASSIFICATION_TYPE = U
NORAD_CAT_ID   = 25861
ELEMENT_SET_NO = 999
REV_AT_EPOCH   = 43411
BSTAR          = .70878601E-4
MEAN_MOTION_DOT = .505E-5
MEAN_MOTION_DDOT = 0

CCSDS_OMM_VERS = 2.0
CREATION_DATE  = 
ORIGINATOR     = 

OBJECT_NAME    = DELTA 2 R/B
OBJECT_ID      = 1999-041E
CENTER_NAME    = EARTH
REF_FRAME      = TEME
TIME_SYSTEM    = UTC
MEAN_ELEMENT_THEORY = SGP/SGP4

EPOCH          = 2026-02-19T07:38:51.061920
MEAN_MOTION    = 14.11768118
ECCENTRICITY   = .05022138
INCLINATION    = 51.7662
RA_OF_ASC_NODE = 14.6458
ARG_OF_PERICENTER = 294.1797
MEAN_ANOMALY   = 60.7420

EPHEMERIS_TYPE = 0
CLASSIFICATION_TYPE = U
NORAD_CAT_ID   = 25876
ELEMENT_SET_NO = 999
REV_AT_EPOCH   = 36043
BSTAR          = .2967478E-3
MEAN_MOTION_DOT = .1611E-4
MEAN_MOTION_DDOT = 0

CCSDS_OMM_VERS = 2.0
CREATION_DATE  = 
ORIGINATOR     = 

OBJECT_NAME    = HELIOS 1B
OBJECT_ID      = 1999-064A
CENTER_NAME    = EARTH
REF_FRAME      = TEME
TIME_SYSTEM    = UTC
MEAN_ELEMENT_THEORY = SGP/SGP4

EPOCH          = 2026-02-19T06:49:31.410912
MEAN_MOTION    = 14.87617426
ECCENTRICITY   = .0002337
INCLINATION    = 98.1717
RA_OF_ASC_NODE = 311.9853
ARG_OF_PERICENTER = 100.1374
MEAN_ANOMALY   = 260.0105

EPHEMERIS_TYPE = 0
CLASSIFICATION_TYPE = U
NORAD_CAT_ID   = 25977
ELEMENT_SET_NO = 999
REV_AT_EPOCH   = 68252
BSTAR          = .19886E-3
MEAN_MOTION_DOT = .1749E-4
MEAN_MOTION_DDOT = 0

CCSDS_OMM_VERS = 2.0
CREATION_DATE  = 
ORIGINATOR     = 

OBJECT_NAME    = TERRA
OBJECT_ID      = 1999-068A
CENTER_NAME    = EARTH
REF_FRAME      = TEME
TIME_SYSTEM    = UTC
MEAN_ELEMENT_THEORY = SGP/SGP4

EPOCH          = 2026-02-19T14:02:15.736704
MEAN_MOTION    = 14.60993973
ECCENTRICITY   = .0001405
INCLINATION    = 97.9633
RA_OF_ASC_NODE = 104.7077
ARG_OF_PERICENTER = 205.0180
MEAN_ANOMALY   = 314.5268

EPHEMERIS_TYPE = 0
CLASSIFICATION_TYPE = U
NORAD_CAT_ID   = 25994
ELEMENT_SET_NO = 999
REV_AT_EPOCH   = 39243
BSTAR          = .92479162E-4
MEAN_MOTION_DOT = .409E-5
MEAN_MOTION_DDOT = 0

CCSDS_OMM_VERS = 2.0
CREATION_DATE  = 
ORIGINATOR     = 

OBJECT_NAME    = SL-16 R/B
OBJECT_ID      = 2000-006B
CENTER_NAME    = EARTH
REF_FRAME      = TEME
TIME_SYSTEM    = UTC
MEAN_ELEMENT_THEORY = SGP/SGP4

EPOCH          = 2026-02-19T13:44:18.244032
MEAN_MOTION    = 14.15818315
ECCENTRICITY   = .0017909
INCLINATION    = 71.0023
RA_OF_ASC_NODE = 135.9326
ARG_OF_PERICENTER = 215.4428
MEAN_ANOMALY   = 144.5507

EPHEMERIS_TYPE = 0
CLASSIFICATION_TYPE = U
NORAD_CAT_ID   = 26070
ELEMENT_SET_NO = 999
REV_AT_EPOCH   = 34599
BSTAR          = .13691779E-4
MEAN_MOTION_DOT = -.21E-6
MEAN_MOTION_DDOT = 0

CCSDS_OMM_VERS = 2.0
CREATION_DATE  = 
ORIGINATOR     = 

OBJECT_NAME    = TITAN 4B R/B
OBJECT_ID      = 2000-047B
CENTER_NAME    = EARTH
REF_FRAME      = TEME
TIME_SYSTEM    = UTC
MEAN_ELEMENT_THEORY = SGP/SGP4

EPOCH          = 2026-02-19T12:58:37.916832
MEAN_MOTION    = 15.09392480
ECCENTRICITY   = .00374395
INCLINATION    = 67.9878
RA_OF_ASC_NODE = 91.5394
ARG_OF_PERICENTER = 57.3751
MEAN_ANOMALY   = 303.1002

EPHEMERIS_TYPE = 0
CLASSIFICATION_TYPE = U
NORAD_CAT_ID   = 26474
ELEMENT_SET_NO = 999
REV_AT_EPOCH   = 39017
BSTAR          = .18175024E-3
MEAN_MOTION_DOT = .2822E-4
MEAN_MOTION_DDOT = 0

CCSDS_OMM_VERS = 2.0
CREATION_DATE  = 
ORIGINATOR     = 

OBJECT_NAME    = ENVISAT
OBJECT_ID      = 2002-009A
CENTER_NAME    = EARTH
REF_FRAME      = TEME
TIME_SYSTEM    = UTC
MEAN_ELEMENT_THEORY = SGP/SGP4

EPOCH          = 2026-02-19T11:22:30.199296
MEAN_MOTION    = 14.39029637
ECCENTRICITY   = .00013608
INCLINATION    = 98.3699
RA_OF_ASC_NODE = 4.5087
ARG_OF_PERICENTER = 87.2351
MEAN_ANOMALY   = 23.7689

EPHEMERIS_TYPE = 0
CLASSIFICATION_TYPE = U
NORAD_CAT_ID   = 27386
ELEMENT_SET_NO = 999
REV_AT_EPOCH   = 25655
BSTAR          = .49307571E-4
MEAN_MOTION_DOT = .109E-5
MEAN_MOTION_DDOT = 0

